ONEWEB-0056             
1 45159U 20008AE  24132.66423795  .00000104  00000+0  26072-3 0  9992
2 45159  87.8974 188.6325 0001878  96.2675 263.8666 13.10377390208552
ONEWEB-0057             
1 45160U 20008AF  24132.13637517  .00000655  00000+0  18395-2 0  9994
2 45160  87.8981 188.7366 0001882 100.5471 259.5869 13.10377301208386
ONEWEB-0058             
1 45161U 20008AG  24131.66509377 -.00000108  00000+0 -34650-3 0  9992
2 45161  87.8972 188.8675 0002114 102.4315 257.7049 13.10375999207906
ONEWEB-0059             
1 45162U 20008AH  24132.19612642 -.00000393  00000+0 -11624-2 0  9993
2 45162  87.8973 188.7408 0002232 100.4495 259.6884 13.10375327208611
ONEWEB-0062             
1 45163U 20008AJ  24132.14635292  .00000713  00000+0  20052-2 0  9994
2 45163  87.8971 188.7353 0002152  96.9096 263.2276 13.10374530208482
ONEWEB-0065             
1 45164U 20008AK  24132.65925860 -.00000140  00000+0 -43675-3 0  9997
2 45164  87.8979 188.6392 0001899  96.7086 263.4257 13.10376266208239
ONEWEB-0066             
1 45424U 20020A   24132.21125428  .00001380  00000+0  38596-2 0  9994
2 45424  87.8985 173.6432 0002002 107.4651 252.6695 13.11375997202162
ONEWEB-0067             
1 45425U 20020B   24132.85959606  .00001322  00000+0  36927-2 0  9990
2 45425  87.8975 173.4812 0001914  98.2160 261.9186 13.11458763202302
